{
  "links" : {
    "next" : "https://api.nasa.gov/neo/rest/v1/feed?start_date=2016-07-09&end_date=2016-07-09&detailed=true&api_key=t0TVs3DtDT2H8Oy2Zy8m2eVrNsAVKAexjcZXUckd",
    "prev" : "https://api.nasa.gov/neo/rest/v1/feed?start_date=2016-07-07&end_date=2016-07-07&detailed=true&api_key=t0TVs3DtDT2H8Oy2Zy8m2eVrNsAVKAexjcZXUckd",
    "self" : "https://api.nasa.gov/neo/rest/v1/feed?start_date=2016-07-08&end_date=2016-07-08&detailed=true&api_key=t0TVs3DtDT2H8Oy2Zy8m2eVrNsAVKAexjcZXUckd"
  },
  "element_count" : 11,
  "near_earth_objects" : {
    "2016-07-08" : [ {
      "links" : {
        "self" : "https://api.nasa.gov/neo/rest/v1/neo/3634154?api_key=t0TVs3DtDT2H8Oy2Zy8m2eVrNsAVKAexjcZXUckd"
      },
      "neo_reference_id" : "3634154",
      "name" : "(2013 GM3)",
      "nasa_jpl_url" : "http://ssd.jpl.nasa.gov/sbdb.cgi?sstr=3634154",
      "absolute_magnitude_h" : 26.3,
      "estimated_diameter" : {
        "kilometers" : {
          "estimated_diameter_min" : 0.0146067964,
          "estimated_diameter_max" : 0.0326617897
        },
        "meters" : {
          "estimated_diameter_min" : 14.6067964271,
          "estimated_diameter_max" : 32.6617897446
        },
        "miles" : {
          "estimated_diameter_min" : 0.0090762397,
          "estimated_diameter_max" : 0.020295089
        },
        "feet" : {
          "estimated_diameter_min" : 47.92256199,
          "estimated_diameter_max" : 107.1581062656
        }
      },
      "is_potentially_hazardous_asteroid" : false,
      "close_approach_data" : [ {
        "close_approach_date" : "2016-07-08",
        "epoch_date_close_approach" : 1467961200000,
        "relative_velocity" : {
          "kilometers_per_second" : "9.2541865771",
          "kilometers_per_hour" : "33315.0716774215",
          "miles_per_hour" : "20700.689954229"
        },
        "miss_distance" : {
          "astronomical" : "0.3409688936",
          "lunar" : "132.6369018555",
          "kilometers" : "51008224",
          "miles" : "31695040"
        },
        "orbiting_body" : "Earth"
      } ],
      "orbital_data" : {
        "orbit_id" : "18",
        "orbit_determination_date" : "2017-04-06 08:46:16",
        "orbit_uncertainty" : "7",
        "minimum_orbit_intersection" : "9.47932E-5",
        "jupiter_tisserand_invariant" : "6.995",
        "epoch_osculation" : "2458000.5",
        "eccentricity" : ".2868808454233409",
        "semi_major_axis" : ".8356079430738917",
        "inclination" : ".01451294322958202",
        "ascending_node_longitude" : "329.7859769942302",
        "orbital_period" : "278.9987556491343",
        "perihelion_distance" : ".5958880299223948",
        "perihelion_argument" : "19.63816192416132",
        "aphelion_distance" : "1.075327856225389",
        "perihelion_time" : "2457890.533974723250",
        "mean_anomaly" : "141.8922783634752",
        "mean_motion" : "1.29032833555979",
        "equinox" : "J2000"
      }
    }, {
      "links" : {
        "self" : "https://api.nasa.gov/neo/rest/v1/neo/3669254?api_key=t0TVs3DtDT2H8Oy2Zy8m2eVrNsAVKAexjcZXUckd"
      },
      "neo_reference_id" : "3669254",
      "name" : "(2014 HR124)",
      "nasa_jpl_url" : "http://ssd.jpl.nasa.gov/sbdb.cgi?sstr=3669254",
      "absolute_magnitude_h" : 22.8,
      "estimated_diameter" : {
        "kilometers" : {
          "estimated_diameter_min" : 0.0732073989,
          "estimated_diameter_max" : 0.1636967205
        },
        "meters" : {
          "estimated_diameter_min" : 73.2073989347,
          "estimated_diameter_max" : 163.696720474
        },
        "miles" : {
          "estimated_diameter_min" : 0.0454889547,
          "estimated_diameter_max" : 0.1017163949
        },
        "feet" : {
          "estimated_diameter_min" : 240.181762721,
          "estimated_diameter_max" : 537.0627483999
        }
      },
      "is_potentially_hazardous_asteroid" : false,
      "close_approach_data" : [ {
        "close_approach_date" : "2016-07-08",
        "epoch_date_close_approach" : 1467961200000,
        "relative_velocity" : {
          "kilometers_per_second" : "9.4882306223",
          "kilometers_per_hour" : "34157.6302404004",
          "miles_per_hour" : "21224.2230790977"
        },
        "miss_distance" : {
          "astronomical" : "0.1909151108",
          "lunar" : "74.2659759521",
          "kilometers" : "28560494",
          "miles" : "17746668"
        },
        "orbiting_body" : "Earth"
      } ],
      "orbital_data" : {
        "orbit_id" : "28",
        "orbit_determination_date" : "2017-05-15 14:03:20",
        "orbit_uncertainty" : "0",
        "minimum_orbit_intersection" : ".0549457",
        "jupiter_tisserand_invariant" : "4.216",
        "epoch_osculation" : "2458000.5",
        "eccentricity" : ".4670850789201257",
        "semi_major_axis" : "1.605193536881799",
        "inclination" : "6.989170216458534",
        "ascending_node_longitude" : "26.69176582512296",
        "orbital_period" : "742.8301635819483",
        "perihelion_distance" : ".8554315870252881",
        "perihelion_argument" : "274.4560376594072",
        "aphelion_distance" : "2.35495548673831",
        "perihelion_time" : "2458332.327793475321",
        "mean_anomaly" : "199.1853057297977",
        "mean_motion" : ".4846329856397722",
        "equinox" : "J2000"
      }
    }, {
      "links" : {
        "self" : "https://api.nasa.gov/neo/rest/v1/neo/3754439?api_key=t0TVs3DtDT2H8Oy2Zy8m2eVrNsAVKAexjcZXUckd"
      },
      "neo_reference_id" : "3754439",
      "name" : "(2016 NN15)",
      "nasa_jpl_url" : "http://ssd.jpl.nasa.gov/sbdb.cgi?sstr=3754439",
      "absolute_magnitude_h" : 26.8,
      "estimated_diameter" : {
        "kilometers" : {
          "estimated_diameter_min" : 0.0116025908,
          "estimated_diameter_max" : 0.0259441818
        },
        "meters" : {
          "estimated_diameter_min" : 11.6025908209,
          "estimated_diameter_max" : 25.9441817907
        },
        "miles" : {
          "estimated_diameter_min" : 0.0072095135,
          "estimated_diameter_max" : 0.0161209622
        },
        "feet" : {
          "estimated_diameter_min" : 38.066244069,
          "estimated_diameter_max" : 85.1187093863
        }
      },
      "is_potentially_hazardous_asteroid" : false,
      "close_approach_data" : [ {
        "close_approach_date" : "2016-07-08",
        "epoch_date_close_approach" : 1467961200000,
        "relative_velocity" : {
          "kilometers_per_second" : "7.9370243607",
          "kilometers_per_hour" : "28573.2876984553",
          "miles_per_hour" : "17754.3297924096"
        },
        "miss_distance" : {
          "astronomical" : "0.0110843028",
          "lunar" : "4.3117938042",
          "kilometers" : "1658188.125",
          "miles" : "1030350.375"
        },
        "orbiting_body" : "Earth"
      } ],
      "orbital_data" : {
        "orbit_id" : "7",
        "orbit_determination_date" : "2017-04-06 08:25:09",
        "orbit_uncertainty" : "5",
        "minimum_orbit_intersection" : ".00902543",
        "jupiter_tisserand_invariant" : "3.586",
        "epoch_osculation" : "2458000.5",
        "eccentricity" : ".5078258147446608",
        "semi_major_axis" : "2.076731822649355",
        "inclination" : "6.870282443323905",
        "ascending_node_longitude" : "282.498102151422",
        "orbital_period" : "1093.123053840452",
        "perihelion_distance" : "1.022113792806282",
        "perihelion_argument" : "8.763470845364893",
        "aphelion_distance" : "3.131349852492429",
        "perihelion_time" : "2457582.209358831306",
        "mean_anomaly" : "137.7563397749989",
        "mean_motion" : ".3293316326421052",
        "equinox" : "J2000"
      }
    } ]
  }
}